[{"OBJECT_NAME":"KUIPER-00027","OBJECT_ID":"2025-088S","EPOCH":"2026-03-03T09:07:19.353504","MEAN_MOTION":14.79914815,"ECCENTRICITY":8.048e-5,"INCLINATION":51.902,"RA_OF_ASC_NODE":123.4863,"ARG_OF_PERICENTER":107.6641,"MEAN_ANOMALY":252.4409,"EPHEMERIS_TYPE":0,"CLASSIFICATION_TYPE":"U","NORAD_CAT_ID":63740,"ELEMENT_SET_NO":999,"REV_AT_EPOCH":4668,"BSTAR":5.216893e-5,"MEAN_MOTION_DOT":1.76e-6,"MEAN_MOTION_DDOT":0},{"OBJECT_NAME":"KUIPER-00028","OBJECT_ID":"2025-088T","EPOCH":"2026-03-03T13:14:18.798144","MEAN_MOTION":14.79994475,"ECCENTRICITY":6.804e-5,"INCLINATION":51.899,"RA_OF_ASC_NODE":120.1964,"ARG_OF_PERICENTER":78.2827,"MEAN_ANOMALY":281.8212,"EPHEMERIS_TYPE":0,"CLASSIFICATION_TYPE":"U","NORAD_CAT_ID":63741,"ELEMENT_SET_NO":999,"REV_AT_EPOCH":4715,"BSTAR":0.00052210412,"MEAN_MOTION_DOT":3.767e-5,"MEAN_MOTION_DDOT":0},{"OBJECT_NAME":"KUIPER-00029","OBJECT_ID":"2025-088U","EPOCH":"2026-03-03T13:37:21.926496","MEAN_MOTION":14.83595272,"ECCENTRICITY":7.088e-5,"INCLINATION":51.9011,"RA_OF_ASC_NODE":117.8072,"ARG_OF_PERICENTER":101.4337,"MEAN_ANOMALY":258.6707,"EPHEMERIS_TYPE":0,"CLASSIFICATION_TYPE":"U","NORAD_CAT_ID":63742,"ELEMENT_SET_NO":999,"REV_AT_EPOCH":4671,"BSTAR":0.00088378558,"MEAN_MOTION_DOT":7.136e-5,"MEAN_MOTION_DDOT":0},{"OBJECT_NAME":"KUIPER-00030","OBJECT_ID":"2025-088V","EPOCH":"2026-03-03T15:13:03.308448","MEAN_MOTION":14.79967136,"ECCENTRICITY":0.00105991,"INCLINATION":51.9009,"RA_OF_ASC_NODE":137.324,"ARG_OF_PERICENTER":52.5827,"MEAN_ANOMALY":307.6099,"EPHEMERIS_TYPE":0,"CLASSIFICATION_TYPE":"U","NORAD_CAT_ID":63743,"ELEMENT_SET_NO":999,"REV_AT_EPOCH":4673,"BSTAR":0.0010383041,"MEAN_MOTION_DOT":7.714e-5,"MEAN_MOTION_DDOT":0},{"OBJECT_NAME":"KUIPER-00031","OBJECT_ID":"2025-088W","EPOCH":"2026-03-03T13:47:35.147904","MEAN_MOTION":14.83591219,"ECCENTRICITY":0.0002271,"INCLINATION":51.8996,"RA_OF_ASC_NODE":122.8888,"ARG_OF_PERICENTER":126.1263,"MEAN_ANOMALY":233.9911,"EPHEMERIS_TYPE":0,"CLASSIFICATION_TYPE":"U","NORAD_CAT_ID":63744,"ELEMENT_SET_NO":999,"REV_AT_EPOCH":4664,"BSTAR":0.00088601483,"MEAN_MOTION_DOT":7.153e-5,"MEAN_MOTION_DDOT":0},{"OBJECT_NAME":"KUIPER-00032","OBJECT_ID":"2025-088X","EPOCH":"2026-03-03T08:41:33.482976","MEAN_MOTION":15.3706349,"ECCENTRICITY":0.00052894,"INCLINATION":51.8703,"RA_OF_ASC_NODE":54.8135,"ARG_OF_PERICENTER":90.3589,"MEAN_ANOMALY":269.8003,"EPHEMERIS_TYPE":0,"CLASSIFICATION_TYPE":"U","NORAD_CAT_ID":63745,"ELEMENT_SET_NO":999,"REV_AT_EPOCH":4857,"BSTAR":0.00051371632,"MEAN_MOTION_DOT":0.00018585,"MEAN_MOTION_DDOT":0},{"OBJECT_NAME":"KUIPER-00033","OBJECT_ID":"2025-088Y","EPOCH":"2026-03-03T15:01:08.497920","MEAN_MOTION":14.83384961,"ECCENTRICITY":7.857e-5,"INCLINATION":51.9013,"RA_OF_ASC_NODE":152.8199,"ARG_OF_PERICENTER":43.0907,"MEAN_ANOMALY":317.0118,"EPHEMERIS_TYPE":0,"CLASSIFICATION_TYPE":"U","NORAD_CAT_ID":63746,"ELEMENT_SET_NO":999,"REV_AT_EPOCH":4671,"BSTAR":0.001028382,"MEAN_MOTION_DOT":8.299e-5,"MEAN_MOTION_DDOT":0},{"OBJECT_NAME":"KUIPER-00034","OBJECT_ID":"2025-088Z","EPOCH":"2026-03-03T10:42:54.116352","MEAN_MOTION":14.83539495,"ECCENTRICITY":0.00017508,"INCLINATION":51.9011,"RA_OF_ASC_NODE":115.9571,"ARG_OF_PERICENTER":335.6172,"MEAN_ANOMALY":24.4709,"EPHEMERIS_TYPE":0,"CLASSIFICATION_TYPE":"U","NORAD_CAT_ID":63747,"ELEMENT_SET_NO":999,"REV_AT_EPOCH":4689,"BSTAR":0.00077088744,"MEAN_MOTION_DOT":6.185e-5,"MEAN_MOTION_DDOT":0},{"OBJECT_NAME":"KUIPER-00035","OBJECT_ID":"2025-088AA","EPOCH":"2026-03-03T14:00:03.000384","MEAN_MOTION":14.83203495,"ECCENTRICITY":0.00040179,"INCLINATION":51.8995,"RA_OF_ASC_NODE":141.0137,"ARG_OF_PERICENTER":56.4171,"MEAN_ANOMALY":113.0136,"EPHEMERIS_TYPE":0,"CLASSIFICATION_TYPE":"U","NORAD_CAT_ID":63748,"ELEMENT_SET_NO":999,"REV_AT_EPOCH":287,"BSTAR":0.003006612,"MEAN_MOTION_DOT":0.00024655,"MEAN_MOTION_DDOT":0},{"OBJECT_NAME":"KUIPER-00037","OBJECT_ID":"2025-088AB","EPOCH":"2026-03-03T10:17:25.133568","MEAN_MOTION":14.79874526,"ECCENTRICITY":7.145e-5,"INCLINATION":51.9001,"RA_OF_ASC_NODE":140.7464,"ARG_OF_PERICENTER":34.8544,"MEAN_ANOMALY":325.2465,"EPHEMERIS_TYPE":0,"CLASSIFICATION_TYPE":"U","NORAD_CAT_ID":63749,"ELEMENT_SET_NO":999,"REV_AT_EPOCH":4738,"BSTAR":0.00091145581,"MEAN_MOTION_DOT":6.725e-5,"MEAN_MOTION_DDOT":0},{"OBJECT_NAME":"KUIPER-00038","OBJECT_ID":"2025-088AC","EPOCH":"2026-03-03T13:55:15.932064","MEAN_MOTION":14.79910562,"ECCENTRICITY":5.449e-5,"INCLINATION":51.9019,"RA_OF_ASC_NODE":125.108,"ARG_OF_PERICENTER":99.604,"MEAN_ANOMALY":260.4984,"EPHEMERIS_TYPE":0,"CLASSIFICATION_TYPE":"U","NORAD_CAT_ID":63750,"ELEMENT_SET_NO":999,"REV_AT_EPOCH":4661,"BSTAR":0.00090383923,"MEAN_MOTION_DOT":6.672e-5,"MEAN_MOTION_DDOT":0},{"OBJECT_NAME":"KUIPER-00039","OBJECT_ID":"2025-134A","EPOCH":"2026-03-03T14:53:08.887200","MEAN_MOTION":14.7992216,"ECCENTRICITY":0.0001051,"INCLINATION":51.8999,"RA_OF_ASC_NODE":259.9319,"ARG_OF_PERICENTER":62.632,"MEAN_ANOMALY":297.4749,"EPHEMERIS_TYPE":0,"CLASSIFICATION_TYPE":"U","NORAD_CAT_ID":64500,"ELEMENT_SET_NO":999,"REV_AT_EPOCH":3917,"BSTAR":0.00060783065,"MEAN_MOTION_DOT":4.414e-5,"MEAN_MOTION_DDOT":0},{"OBJECT_NAME":"KUIPER-00040","OBJECT_ID":"2025-134B","EPOCH":"2026-03-03T12:57:51.031872","MEAN_MOTION":14.79939552,"ECCENTRICITY":0.00129653,"INCLINATION":51.8987,"RA_OF_ASC_NODE":271.4274,"ARG_OF_PERICENTER":244.7771,"MEAN_ANOMALY":115.1847,"EPHEMERIS_TYPE":0,"CLASSIFICATION_TYPE":"U","NORAD_CAT_ID":64501,"ELEMENT_SET_NO":999,"REV_AT_EPOCH":3900,"BSTAR":0.00091389838,"MEAN_MOTION_DOT":6.76e-5,"MEAN_MOTION_DDOT":0},{"OBJECT_NAME":"KUIPER-00041","OBJECT_ID":"2025-134C","EPOCH":"2026-03-02T19:12:43.524000","MEAN_MOTION":14.78691298,"ECCENTRICITY":0.00070895,"INCLINATION":51.8985,"RA_OF_ASC_NODE":276.0926,"ARG_OF_PERICENTER":241.9402,"MEAN_ANOMALY":118.0844,"EPHEMERIS_TYPE":0,"CLASSIFICATION_TYPE":"U","NORAD_CAT_ID":64502,"ELEMENT_SET_NO":999,"REV_AT_EPOCH":3887,"BSTAR":0.00055429749,"MEAN_MOTION_DOT":3.886e-5,"MEAN_MOTION_DDOT":0},{"OBJECT_NAME":"KUIPER-00042","OBJECT_ID":"2025-134D","EPOCH":"2026-03-03T00:03:41.336064","MEAN_MOTION":14.79872098,"ECCENTRICITY":0.00073878,"INCLINATION":51.8989,"RA_OF_ASC_NODE":271.1637,"ARG_OF_PERICENTER":257.3465,"MEAN_ANOMALY":102.6672,"EPHEMERIS_TYPE":0,"CLASSIFICATION_TYPE":"U","NORAD_CAT_ID":64503,"ELEMENT_SET_NO":999,"REV_AT_EPOCH":3896,"BSTAR":-0.0006328881,"MEAN_MOTION_DOT":-5.039e-5,"MEAN_MOTION_DDOT":0},{"OBJECT_NAME":"KUIPER-00043","OBJECT_ID":"2025-134E","EPOCH":"2026-03-02T22:16:10.019136","MEAN_MOTION":14.83778187,"ECCENTRICITY":8.92e-5,"INCLINATION":51.9,"RA_OF_ASC_NODE":263.1025,"ARG_OF_PERICENTER":311.7049,"MEAN_ANOMALY":48.3838,"EPHEMERIS_TYPE":0,"CLASSIFICATION_TYPE":"U","NORAD_CAT_ID":64504,"ELEMENT_SET_NO":999,"REV_AT_EPOCH":3907,"BSTAR":0.00058344,"MEAN_MOTION_DOT":4.652e-5,"MEAN_MOTION_DDOT":0}]
