KUIPER-00027            
1 63740U 25088S   26062.38008511  .00000176  00000+0  52169-4 0  9995
2 63740  51.9020 123.4863 0000804 107.6641 252.4409 14.79914815 46682
KUIPER-00028            
1 63741U 25088T   26062.55160646  .00003767  00000+0  52210-3 0  9998
2 63741  51.8990 120.1964 0000680  78.2827 281.8212 14.79994475 47156
KUIPER-00029            
1 63742U 25088U   26062.56761489  .00007136  00000+0  88379-3 0  9991
2 63742  51.9011 117.8072 0000708 101.4337 258.6707 14.83595272 46710
KUIPER-00030            
1 63743U 25088V   26062.63406607  .00007714  00000+0  10383-2 0  9999
2 63743  51.9009 137.3240 0010599  52.5827 307.6099 14.79967136 46739
KUIPER-00031            
1 63744U 25088W   26062.57471236  .00007153  00000+0  88601-3 0  9999
2 63744  51.8996 122.8888 0002271 126.1263 233.9911 14.83591219 46645
KUIPER-00032            
1 63745U 25088X   26062.36219309  .00018585  00000+0  51372-3 0  9994
2 63745  51.8703  54.8135 0005289  90.3589 269.8003 15.37063490 48575
KUIPER-00033            
1 63746U 25088Y   26062.62579280  .00008299  00000+0  10284-2 0  9998
2 63746  51.9013 152.8199 0000785  43.0907 317.0118 14.83384961 46711
KUIPER-00034            
1 63747U 25088Z   26062.44645968  .00006185  00000+0  77089-3 0  9995
2 63747  51.9011 115.9571 0001750 335.6172  24.4709 14.83539495 46899
KUIPER-00035            
1 63748U 25088AA  26062.58336806  .00024655  00000+0  30066-2 0  9994
2 63748  51.8995 141.0137 0004017  56.4171 113.0136 14.83203495  2871
KUIPER-00037            
1 63749U 25088AB  26062.42876312  .00006725  00000+0  91146-3 0  9994
2 63749  51.9001 140.7464 0000714  34.8544 325.2465 14.79874526 47385
KUIPER-00038            
1 63750U 25088AC  26062.58004551  .00006672  00000+0  90384-3 0  9995
2 63750  51.9019 125.1080 0000544  99.6040 260.4984 14.79910562 46610
KUIPER-00039            
1 64500U 25134A   26062.62024175  .00004414  00000+0  60783-3 0  9992
2 64500  51.8999 259.9319 0001051  62.6320 297.4749 14.79922160 39175
KUIPER-00040            
1 64501U 25134B   26062.54017398  .00006760  00000+0  91390-3 0  9997
2 64501  51.8987 271.4274 0012965 244.7771 115.1847 14.79939552 39001
KUIPER-00041            
1 64502U 25134C   26061.80050375  .00003886  00000+0  55430-3 0  9999
2 64502  51.8985 276.0926 0007089 241.9402 118.0844 14.78691298 38870
KUIPER-00042            
1 64503U 25134D   26062.00256176 -.00005039  00000+0 -63289-3 0  9995
2 64503  51.8989 271.1637 0007387 257.3465 102.6672 14.79872098 38969
KUIPER-00043            
1 64504U 25134E   26061.92789374  .00004652  00000+0  58344-3 0  9991
2 64504  51.9000 263.1025 0000892 311.7049  48.3838 14.83778187 39076
